OBJECT_NAME,OBJECT_ID,EPOCH,MEAN_MOTION,ECCENTRICITY,INCLINATION,RA_OF_ASC_NODE,ARG_OF_PERICENTER,MEAN_ANOMALY,EPHEMERIS_TYPE,CLASSIFICATION_TYPE,NORAD_CAT_ID,ELEMENT_SET_NO,REV_AT_EPOCH,BSTAR,MEAN_MOTION_DOT,MEAN_MOTION_DDOT
SIRION PATHFINDER-2,2018-099B,2026-06-24T02:51:04.825440,15.14601390,.00070105,97.4251,224.0115,275.4609,84.5823,0,U,43759,999,41367,.20871553E-3,.379E-4,0
CORVUS BC4,2018-099K,2026-06-24T01:38:49.784064,15.12540747,.0007537,97.4066,217.8472,348.7267,11.3794,0,U,43767,999,41344,.22767577E-3,.3907E-4,0
M2 PATHFINDER,2020-037E,2026-06-24T02:18:09.070848,15.04695866,.00125959,97.8139,6.4049,126.1910,234.0482,0,U,45727,999,32653,.1282523E-3,.1743E-4,0
NETSAT-4,2020-068U,2026-06-24T06:05:38.749344,15.44068925,.00032324,97.8606,184.0630,301.0366,59.0563,0,U,46504,999,31686,.34881242E-3,.15853E-3,0
NETSAT-3,2020-068V,2026-06-24T00:08:53.608992,15.42883424,.00033106,97.8655,182.0032,330.8691,29.2370,0,U,46505,999,31673,.37102704E-3,.16209E-3,0
NETSAT-1,2020-068W,2026-06-24T05:48:53.098272,15.34782789,.00041766,97.8747,176.5056,9.8651,350.2672,0,U,46506,999,31638,.32110338E-3,.10745E-3,0
NETSAT-2,2020-068X,2026-06-24T06:49:04.755648,15.46266444,.00023609,97.8621,184.0160,1.2129,358.9124,0,U,46507,999,31683,.41253073E-3,.20236E-3,0
GREENCUBE (IO-117),2022-080E,2026-06-23T17:18:16.788960,6.42583215,.00089266,70.1445,295.9726,288.1418,71.8270,0,U,53109,999,9248,0,-.3E-7,0
SITRO-AIS 5 (KATYS),2023-091L,2026-06-24T06:23:36.461472,15.29595340,.00125772,97.5060,239.2333,81.6480,278.6186,0,U,57176,999,16542,.38737443E-3,.11063E-3,0
SITRO-AIS 6 (CHIRKIN),2023-091AC,2026-06-24T06:16:52.891392,15.26050114,.00129779,97.5068,238.3100,84.6547,275.6172,0,U,57192,999,16536,.37008213E-3,.9481E-4,0
SITRO-AIS 8 (ANOKHIN),2023-091AD,2026-06-24T06:30:13.321728,15.32301729,.00115505,97.5057,240.8554,78.0658,282.1878,0,U,57193,999,16553,.41960599E-3,.13041E-3,0
SITRO-AIS 7 (FARTUSHNIY),2023-091AE,2026-06-24T06:23:30.338304,15.25735113,.00128552,97.5066,238.1360,85.5975,274.6731,0,U,57194,999,16535,.3590028E-3,.9107E-4,0
SITRO-AIS 10 (BURDAEV),2023-091AK,2026-06-24T06:32:31.833024,15.38845989,.0006996,97.5082,245.9849,58.7181,301.4748,0,U,57199,999,16585,.47740345E-3,.18293E-3,0
SITRO-AIS 9 (SHCHUKIN),2023-091AM,2026-06-24T05:40:09.471936,15.38345353,.00072466,97.5079,245.6720,59.0713,301.1243,0,U,57201,999,16583,.45754036E-3,.17243E-3,0
SITRO-AIS 12 (SMIRENNIY),2023-091AQ,2026-06-24T06:58:22.074528,15.38641463,.00067328,97.5093,246.1992,53.7958,306.3908,0,U,57204,999,16586,.46412252E-3,.17661E-3,0
SITRO-AIS 11 (SHEFFER),2023-091AU,2026-06-24T05:41:13.454592,15.39068342,.00066237,97.5090,246.3954,53.6673,306.5183,0,U,57208,999,16587,.45172392E-3,.17427E-3,0
SITRO-AIS 25,2024-039R,2026-06-24T06:38:51.891072,14.93543904,.01426953,95.3909,239.9647,303.7154,55.0537,0,U,59066,999,12578,.1575718E-3,.1991E-4,0
SITRO-AIS 26,2024-039S,2026-06-24T06:42:14.207040,14.93337767,.01431555,95.3907,239.8624,304.2976,54.4765,0,U,59067,999,12577,.14751477E-3,.1854E-4,0
SITRO-AIS 27,2024-039T,2026-06-24T07:32:59.553888,14.93757243,.01421311,95.3909,240.1615,302.7239,56.0350,0,U,59068,999,12580,.18621244E-3,.2371E-4,0
SITRO-AIS 28,2024-039U,2026-06-24T07:00:16.329888,14.93791565,.01420514,95.3912,240.1937,302.6684,56.0904,0,U,59071,999,12580,.13177491E-3,.1668E-4,0
GRBBETA,2024-128C,2026-06-24T04:31:37.733952,15.06673239,.00397422,61.9881,191.7006,136.1475,224.2785,0,U,60237,999,10732,.18315735E-3,.2558E-4,0
OOV-CUBE (TUBSAT-30),2024-128F,2026-06-24T04:12:08.253792,15.02794999,.00437661,61.9924,201.2058,135.3131,225.1501,0,U,60240,999,10716,.11476558E-3,.1358E-4,0
ROBUSTA-3A (MEDITERRANEE),2024-128J,2026-06-24T03:30:41.945184,15.11729530,.00404027,61.9847,183.6324,129.5028,230.9651,0,U,60243,999,10747,.22904275E-3,.3769E-4,0
LASARSAT,2024-247Q,2026-06-23T04:14:59.620416,15.46678707,.00075591,44.9731,228.5471,6.4663,353.6324,0,U,62391,999,8424,.49390974E-3,.24962E-3,0
CROCUBE,2024-247T,2026-06-23T04:01:13.553472,15.48608154,.00073733,44.9701,225.8355,11.2148,348.8906,0,U,62394,999,8427,.5204396E-3,.28182E-3,0
FORESAIL-1 PRIME,2025-276DS,2026-06-24T04:16:37.167744,15.18755619,.00039349,97.4200,248.3212,89.2659,270.9027,0,U,66778,999,3146,.19202938E-3,.3923E-4,0
KNACKSAT-2,1998-067XZ,2026-06-23T15:03:25.533504,15.60494137,.00087625,51.6285,262.0701,244.0918,115.9173,0,U,67683,999,2128,.46308779E-3,.38628E-3,0
